[{"OBJECT_NAME":"STARLINK-5265","OBJECT_ID":"2023-010BA","EPOCH":"2026-03-09T21:36:39.295584","MEAN_MOTION":14.98336373,"ECCENTRICITY":0.00028078,"INCLINATION":70.0014,"RA_OF_ASC_NODE":3.9602,"ARG_OF_PERICENTER":274.6158,"MEAN_ANOMALY":85.4681,"EPHEMERIS_TYPE":0,"CLASSIFICATION_TYPE":"U","NORAD_CAT_ID":55317,"ELEMENT_SET_NO":999,"REV_AT_EPOCH":17467,"BSTAR":-0.00016984666,"MEAN_MOTION_DOT":-2.119e-5,"MEAN_MOTION_DDOT":0},{"OBJECT_NAME":"DMSP 5D-2 F13 DEB","OBJECT_ID":"1995-015CP","EPOCH":"2026-03-07T12:11:36.379680","MEAN_MOTION":14.97633156,"ECCENTRICITY":0.00060588,"INCLINATION":98.7878,"RA_OF_ASC_NODE":156.2683,"ARG_OF_PERICENTER":182.3212,"MEAN_ANOMALY":177.798,"EPHEMERIS_TYPE":0,"CLASSIFICATION_TYPE":"U","NORAD_CAT_ID":40500,"ELEMENT_SET_NO":999,"REV_AT_EPOCH":57139,"BSTAR":0.013984163,"MEAN_MOTION_DOT":0.00167441,"MEAN_MOTION_DDOT":0}]
